CCSDS_OMM_VERS = 2.0
CREATION_DATE  = 
ORIGINATOR     = 

OBJECT_NAME    = DELTA 2 R/B(1)
OBJECT_ID      = 1990-008B
CENTER_NAME    = EARTH
REF_FRAME      = TEME
TIME_SYSTEM    = UTC
MEAN_ELEMENT_THEORY = SGP/SGP4

EPOCH          = 2025-12-26T02:53:06.233856
MEAN_MOTION    = 15.46332437
ECCENTRICITY   = .01097315
INCLINATION    = 35.6077
RA_OF_ASC_NODE = 294.0589
ARG_OF_PERICENTER = 299.7178
MEAN_ANOMALY   = 59.2672

EPHEMERIS_TYPE = 0
CLASSIFICATION_TYPE = U
NORAD_CAT_ID   = 20453
ELEMENT_SET_NO = 999
REV_AT_EPOCH   = 91470
BSTAR          = .70309903E-3
MEAN_MOTION_DOT = .4553E-3
MEAN_MOTION_DDOT = 0

CCSDS_OMM_VERS = 2.0
CREATION_DATE  = 
ORIGINATOR     = 

OBJECT_NAME    = COSMOS 2058
OBJECT_ID      = 1990-010A
CENTER_NAME    = EARTH
REF_FRAME      = TEME
TIME_SYSTEM    = UTC
MEAN_ELEMENT_THEORY = SGP/SGP4

EPOCH          = 2025-12-25T19:23:26.012544
MEAN_MOTION    = 15.10597923
ECCENTRICITY   = .00095403
INCLINATION    = 82.4709
RA_OF_ASC_NODE = 120.1774
ARG_OF_PERICENTER = 223.2716
MEAN_ANOMALY   = 136.7766

EPHEMERIS_TYPE = 0
CLASSIFICATION_TYPE = U
NORAD_CAT_ID   = 20465
ELEMENT_SET_NO = 999
REV_AT_EPOCH   = 93108
BSTAR          = .31288686E-3
MEAN_MOTION_DOT = .5199E-4
MEAN_MOTION_DDOT = 0

CCSDS_OMM_VERS = 2.0
CREATION_DATE  = 
ORIGINATOR     = 

OBJECT_NAME    = SL-14 R/B
OBJECT_ID      = 1990-010B
CENTER_NAME    = EARTH
REF_FRAME      = TEME
TIME_SYSTEM    = UTC
MEAN_ELEMENT_THEORY = SGP/SGP4

EPOCH          = 2025-12-26T00:47:55.731552
MEAN_MOTION    = 14.83483382
ECCENTRICITY   = .00197913
INCLINATION    = 82.5024
RA_OF_ASC_NODE = 336.5612
ARG_OF_PERICENTER = 177.9598
MEAN_ANOMALY   = 182.1701

EPHEMERIS_TYPE = 0
CLASSIFICATION_TYPE = U
NORAD_CAT_ID   = 20466
ELEMENT_SET_NO = 999
REV_AT_EPOCH   = 91756
BSTAR          = .56967097E-4
MEAN_MOTION_DOT = .493E-5
MEAN_MOTION_DDOT = 0

CCSDS_OMM_VERS = 2.0
CREATION_DATE  = 
ORIGINATOR     = 

OBJECT_NAME    = SL-14 R/B
OBJECT_ID      = 1990-018B
CENTER_NAME    = EARTH
REF_FRAME      = TEME
TIME_SYSTEM    = UTC
MEAN_ELEMENT_THEORY = SGP/SGP4

EPOCH          = 2025-12-26T06:00:24.513408
MEAN_MOTION    = 14.82060515
ECCENTRICITY   = .00158335
INCLINATION    = 82.5221
RA_OF_ASC_NODE = 291.7375
ARG_OF_PERICENTER = 339.0869
MEAN_ANOMALY   = 20.9695

EPHEMERIS_TYPE = 0
CLASSIFICATION_TYPE = U
NORAD_CAT_ID   = 20511
ELEMENT_SET_NO = 999
REV_AT_EPOCH   = 91170
BSTAR          = .6828518E-4
MEAN_MOTION_DOT = .567E-5
MEAN_MOTION_DDOT = 0

CCSDS_OMM_VERS = 2.0
CREATION_DATE  = 
ORIGINATOR     = 

OBJECT_NAME    = HST
OBJECT_ID      = 1990-037B
CENTER_NAME    = EARTH
REF_FRAME      = TEME
TIME_SYSTEM    = UTC
MEAN_ELEMENT_THEORY = SGP/SGP4

EPOCH          = 2025-12-26T04:19:24.803616
MEAN_MOTION    = 15.28214309
ECCENTRICITY   = .00024783
INCLINATION    = 28.4655
RA_OF_ASC_NODE = 180.9938
ARG_OF_PERICENTER = 33.4374
MEAN_ANOMALY   = 326.6378

EPHEMERIS_TYPE = 0
CLASSIFICATION_TYPE = U
NORAD_CAT_ID   = 20580
ELEMENT_SET_NO = 999
REV_AT_EPOCH   = 76205
BSTAR          = .20759393E-3
MEAN_MOTION_DOT = .6098E-4
MEAN_MOTION_DDOT = 0

CCSDS_OMM_VERS = 2.0
CREATION_DATE  = 
ORIGINATOR     = 

OBJECT_NAME    = SL-16 R/B
OBJECT_ID      = 1990-046B
CENTER_NAME    = EARTH
REF_FRAME      = TEME
TIME_SYSTEM    = UTC
MEAN_ELEMENT_THEORY = SGP/SGP4

EPOCH          = 2025-12-26T05:57:22.058208
MEAN_MOTION    = 14.14997385
ECCENTRICITY   = .00123117
INCLINATION    = 70.9992
RA_OF_ASC_NODE = 92.1534
ARG_OF_PERICENTER = 50.0867
MEAN_ANOMALY   = 310.1336

EPHEMERIS_TYPE = 0
CLASSIFICATION_TYPE = U
NORAD_CAT_ID   = 20625
ELEMENT_SET_NO = 999
REV_AT_EPOCH   = 83800
BSTAR          = -.21824315E-4
MEAN_MOTION_DOT = -.9E-6
MEAN_MOTION_DDOT = 0

CCSDS_OMM_VERS = 2.0
CREATION_DATE  = 
ORIGINATOR     = 

OBJECT_NAME    = COSMOS 2084
OBJECT_ID      = 1990-055A
CENTER_NAME    = EARTH
REF_FRAME      = TEME
TIME_SYSTEM    = UTC
MEAN_ELEMENT_THEORY = SGP/SGP4

EPOCH          = 2025-12-26T01:19:54.271200
MEAN_MOTION    = 15.05094967
ECCENTRICITY   = .00295786
INCLINATION    = 62.7887
RA_OF_ASC_NODE = 226.6194
ARG_OF_PERICENTER = 176.4208
MEAN_ANOMALY   = 183.7109

EPHEMERIS_TYPE = 0
CLASSIFICATION_TYPE = U
NORAD_CAT_ID   = 20663
ELEMENT_SET_NO = 999
REV_AT_EPOCH   = 92523
BSTAR          = .19986438E-3
MEAN_MOTION_DOT = .2679E-4
MEAN_MOTION_DDOT = 0

CCSDS_OMM_VERS = 2.0
CREATION_DATE  = 
ORIGINATOR     = 

OBJECT_NAME    = SL-6 R/B(2)
OBJECT_ID      = 1990-055D
CENTER_NAME    = EARTH
REF_FRAME      = TEME
TIME_SYSTEM    = UTC
MEAN_ELEMENT_THEORY = SGP/SGP4

EPOCH          = 2025-12-25T17:45:44.275392
MEAN_MOTION    = 15.03133991
ECCENTRICITY   = .00142524
INCLINATION    = 62.7827
RA_OF_ASC_NODE = 145.2403
ARG_OF_PERICENTER = 317.7945
MEAN_ANOMALY   = 42.2056

EPHEMERIS_TYPE = 0
CLASSIFICATION_TYPE = U
NORAD_CAT_ID   = 20666
ELEMENT_SET_NO = 999
REV_AT_EPOCH   = 92707
BSTAR          = .20754339E-3
MEAN_MOTION_DOT = .2624E-4
MEAN_MOTION_DDOT = 0

CCSDS_OMM_VERS = 2.0
CREATION_DATE  = 
ORIGINATOR     = 

OBJECT_NAME    = SL-8 R/B
OBJECT_ID      = 1990-078B
CENTER_NAME    = EARTH
REF_FRAME      = TEME
TIME_SYSTEM    = UTC
MEAN_ELEMENT_THEORY = SGP/SGP4

EPOCH          = 2025-12-25T23:52:20.439264
MEAN_MOTION    = 14.86404679
ECCENTRICITY   = .03700389
INCLINATION    = 82.9063
RA_OF_ASC_NODE = 317.4415
ARG_OF_PERICENTER = 261.2619
MEAN_ANOMALY   = 94.6531

EPHEMERIS_TYPE = 0
CLASSIFICATION_TYPE = U
NORAD_CAT_ID   = 20775
ELEMENT_SET_NO = 999
REV_AT_EPOCH   = 79834
BSTAR          = .47892539E-3
MEAN_MOTION_DOT = .15522E-3
MEAN_MOTION_DDOT = 0

CCSDS_OMM_VERS = 2.0
CREATION_DATE  = 
ORIGINATOR     = 

OBJECT_NAME    = SL-8 R/B
OBJECT_ID      = 1991-006B
CENTER_NAME    = EARTH
REF_FRAME      = TEME
TIME_SYSTEM    = UTC
MEAN_ELEMENT_THEORY = SGP/SGP4

EPOCH          = 2025-12-26T01:32:48.149952
MEAN_MOTION    = 13.77492658
ECCENTRICITY   = .00213102
INCLINATION    = 82.9413
RA_OF_ASC_NODE = 224.8016
ARG_OF_PERICENTER = 240.2146
MEAN_ANOMALY   = 285.5074

EPHEMERIS_TYPE = 0
CLASSIFICATION_TYPE = U
NORAD_CAT_ID   = 21088
ELEMENT_SET_NO = 999
REV_AT_EPOCH   = 75393
BSTAR          = .90185958E-4
MEAN_MOTION_DOT = .105E-5
MEAN_MOTION_DDOT = 0

CCSDS_OMM_VERS = 2.0
CREATION_DATE  = 
ORIGINATOR     = 

OBJECT_NAME    = OKEAN-3
OBJECT_ID      = 1991-039A
CENTER_NAME    = EARTH
REF_FRAME      = TEME
TIME_SYSTEM    = UTC
MEAN_ELEMENT_THEORY = SGP/SGP4

EPOCH          = 2025-12-26T02:52:51.865536
MEAN_MOTION    = 15.04199324
ECCENTRICITY   = .00136424
INCLINATION    = 82.5162
RA_OF_ASC_NODE = 48.0953
ARG_OF_PERICENTER = 214.6153
MEAN_ANOMALY   = 145.4187

EPHEMERIS_TYPE = 0
CLASSIFICATION_TYPE = U
NORAD_CAT_ID   = 21397
ELEMENT_SET_NO = 999
REV_AT_EPOCH   = 85397
BSTAR          = .182812E-3
MEAN_MOTION_DOT = .257E-4
MEAN_MOTION_DDOT = 0

CCSDS_OMM_VERS = 2.0
CREATION_DATE  = 
ORIGINATOR     = 

OBJECT_NAME    = COSMOS 2151
OBJECT_ID      = 1991-042A
CENTER_NAME    = EARTH
REF_FRAME      = TEME
TIME_SYSTEM    = UTC
MEAN_ELEMENT_THEORY = SGP/SGP4

EPOCH          = 2025-12-26T05:37:26.968224
MEAN_MOTION    = 14.99736972
ECCENTRICITY   = .0011497
INCLINATION    = 82.4966
RA_OF_ASC_NODE = 154.4982
ARG_OF_PERICENTER = 312.2314
MEAN_ANOMALY   = 47.7933

EPHEMERIS_TYPE = 0
CLASSIFICATION_TYPE = U
NORAD_CAT_ID   = 21422
ELEMENT_SET_NO = 999
REV_AT_EPOCH   = 85218
BSTAR          = .1940072E-3
MEAN_MOTION_DOT = .2424E-4
MEAN_MOTION_DDOT = 0

